[{"OBJECT_NAME":"CS1","OBJECT_ID":"2021-088B","EPOCH":"2026-03-09T18:02:30.253920","MEAN_MOTION":15.31848439,"ECCENTRICITY":0.00141292,"INCLINATION":97.3882,"RA_OF_ASC_NODE":132.1684,"ARG_OF_PERICENTER":78.0335,"MEAN_ANOMALY":282.249,"EPHEMERIS_TYPE":0,"CLASSIFICATION_TYPE":"U","NORAD_CAT_ID":49261,"ELEMENT_SET_NO":999,"REV_AT_EPOCH":24518,"BSTAR":0.00051175576,"MEAN_MOTION_DOT":0.00015722,"MEAN_MOTION_DDOT":0},{"OBJECT_NAME":"STARLINK-35832","OBJECT_ID":"2025-263L","EPOCH":"2026-03-09T02:59:43.956384","MEAN_MOTION":15.27574085,"ECCENTRICITY":0.00016887,"INCLINATION":43.0046,"RA_OF_ASC_NODE":353.7896,"ARG_OF_PERICENTER":256.5212,"MEAN_ANOMALY":103.5452,"EPHEMERIS_TYPE":0,"CLASSIFICATION_TYPE":"U","NORAD_CAT_ID":66495,"ELEMENT_SET_NO":999,"REV_AT_EPOCH":1881,"BSTAR":0.0016967746,"MEAN_MOTION_DOT":0.00046717,"MEAN_MOTION_DDOT":0}]
